SKYSAT-A                
1 39418U 13066C   24199.73426735  .00006209  00000+0  43439-3 0  9995
2 39418  97.4845 259.0949 0024840 197.2853 162.7531 15.05372626582945
SKYSAT-B                
1 40072U 14037D   24200.19171140  .00003275  00000+0  39824-3 0  9995
2 40072  98.3310 113.3324 0006800  34.4495 325.7157 14.84213284542209
SKYSAT-C1               
1 41601U 16040C   24200.17843279  .00016896  00000+0  58656-3 0  9994
2 41601  97.0607 259.0341 0003637 130.3099 229.8461 15.29829787450886
SKYSAT-C4               
1 41771U 16058B   24200.40202937  .00019983  00000+0  59813-3 0  9993
2 41771  97.0077 246.3806 0004551  80.2756 279.9002 15.34554168438000
SKYSAT-C5               
1 41772U 16058C   24199.71162661  .00019735  00000+0  59819-3 0  9995
2 41772  97.1564 254.0579 0000256 276.8913  83.2301 15.34168868436376
SKYSAT-C2               
1 41773U 16058D   24199.70339991  .00016335  00000+0  56770-3 0  9993
2 41773  97.0105 244.3101 0004358  99.9055 260.2679 15.29797014437784
SKYSAT-C3               
1 41774U 16058E   24200.42947708  .00026389  00000+0  62043-3 0  9997
2 41774  97.0091 253.1487 0004675  86.5097 273.6686 15.41954762438454
SKYSAT-C11              
1 42987U 17068A   24199.90733231  .00028593  00000+0  69387-3 0  9997
2 42987  97.3607 326.4189 0003298 174.6695 185.4587 15.40992909375378
SKYSAT-C10              
1 42988U 17068B   24199.91557029  .00020325  00000+0  66734-3 0  9996
2 42988  97.3689 325.7017 0005539  83.2890 276.8981 15.31597803375291
SKYSAT-C9               
1 42989U 17068C   24199.91251379  .00019791  00000+0  68166-3 0  9992
2 42989  97.3624 324.1384 0013098 185.0077 175.1035 15.29986110375480
SKYSAT-C8               
1 42990U 17068D   24199.92914276  .00018460  00000+0  64356-3 0  9996
2 42990  97.3719 325.1979 0003159 120.5971 239.5581 15.29683912375241
SKYSAT-C7               
1 42991U 17068E   24199.88696069  .00018881  00000+0  65639-3 0  9991
2 42991  97.3718 325.5812 0001001  39.1994 320.9319 15.29774443375261
SKYSAT-C6               
1 42992U 17068F   24199.89194180  .00019888  00000+0  66742-3 0  9994
2 42992  97.3747 326.6513 0005674 125.7370 234.4400 15.30896311375300
SKYSAT-C12              
1 43797U 18099AR  24200.37922030  .00017985  00000+0  57691-3 0  9991
2 43797  97.0185 247.4087 0004313  46.4582 313.7018 15.32371004314427
SKYSAT-C13              
1 43802U 18099AW  24199.94579072  .00028052  00000+0  68333-3 0  9994
2 43802  97.0432 253.0309 0005958 164.7086 195.4342 15.40865157314182
SKYSAT-C14              
1 45788U 20038BL  24200.47249289  .00177459  00000+0  82227-3 0  9994
2 45788  52.9669 229.6997 0004560  56.7042 303.4415 15.82426777233315
SKYSAT-C16              
1 45789U 20038BM  24199.48225881  .00109278  00000+0  79706-3 0  9997
2 45789  52.9696 229.3901 0006636  64.4962 295.6740 15.72447611233223
SKYSAT-C15              
1 45790U 20038BN  24200.13785495  .00093377  00000+0  80788-3 0  9990
2 45790  52.9709 246.4038 0006753  47.5606 312.5979 15.68416795233045
FLOCK 4V-11             
1 46285U 20061P   24199.72890932  .00043783  00000+0  91795-3 0  9997
2 46285  97.3535 273.4757 0003930  98.5908 261.5787 15.45270254214668
FLOCK 4V-14             
1 46286U 20061Q   24200.54494170  .00057959  00000+0  11316-2 0  9995
2 46286  97.3527 274.7003 0003249 111.2266 248.9331 15.47287584214818
FLOCK 4V-8              
1 46288U 20061S   24199.79354688  .00044825  00000+0  92938-3 0  9998
2 46288  97.3548 273.6927 0003843 118.6825 241.4811 15.45592930214596
FLOCK 4V-10             
1 46296U 20061AA  24200.45038019  .00278372  00000+0  40236-2 0  9999
2 46296  97.3536 274.9223 0006301 243.2919 116.7690 15.54944535214777
FLOCK 4V-13             
1 46297U 20061AB  24200.16517657  .00055250  00000+0  11394-2 0  9999
2 46297  97.3519 274.1867 0001622 113.7750 246.3669 15.45705935214685
FLOCK 4V-20             
1 46612U 20061BJ  24200.21693167  .00251125  00000+0  38998-2 0  9995
2 46612  97.3136 275.3526 0008472 261.1691  98.8603 15.53040134209413
FLOCK 4S-11             
1 47462U 21006BB  24199.68053238  .00048070  00000+0  15142-2 0  9995
2 47462  97.3341 251.7813 0007357 151.9098 208.2543 15.32731675192820
FLOCK 4S-33             
1 47469U 21006BJ  24199.93624353  .00053459  00000+0  86897-3 0  9995
2 47469  97.3244 264.6570 0003404 119.4784 240.6809 15.52525917193729
FLOCK 4S-34             
1 47477U 21006BS  24199.80848780  .00070438  00000+0  10852-2 0  9995
2 47477  97.3270 265.5681 0004427 114.3144 245.8572 15.53939841193720
FLOCK 4S-9              
1 47478U 21006BT  24199.67916883  .00048847  00000+0  86134-3 0  9997
2 47478  97.3272 264.0285 0005533 113.4213 246.7621 15.50243530193661
FLOCK 4S-18             
1 47496U 21006CM  24199.75376304  .00043684  00000+0  71970-3 0  9990
2 47496  97.3378 266.0922 0006867 104.3368 255.8647 15.52174786193712
FLOCK 4S-28             
1 47514U 21006DE  24200.15590649  .00056724  00000+0  92743-3 0  9998
2 47514  97.3237 264.4493 0004386 109.9676 250.2050 15.52344230194721
FLOCK 4S-5              
1 47515U 21006DF  24200.16868090  .00055794  00000+0  87762-3 0  9999
2 47515  97.3226 264.7709 0005418  95.7773 264.4098 15.53420453193798
FLOCK 4S-6              
1 47518U 21006DJ  24200.52193732  .00076713  00000+0  11655-2 0  9997
2 47518  97.3276 265.3809 0005114 108.5409 251.6400 15.54296813194817
FLOCK 4S-37             
1 47522U 21006DN  24199.69149748  .00073983  00000+0  11152-2 0  9993
2 47522  97.3341 265.8302 0004074 131.4126 228.7479 15.54529589194677
FLOCK 4S-20             
1 47540U 21006EA  24200.15182499  .00056449  00000+0  92844-3 0  9993
2 47540  97.3317 266.2058 0006247  97.1574 263.0389 15.52168331192843
FLOCK 4S-30             
1 47544U 21006EE  24199.69588845  .00058675  00000+0  94992-3 0  9997
2 47544  97.3226 264.2913 0004955 104.5275 255.6527 15.52608441194652
FLOCK 4S-42             
1 47612U 21006EQ  24199.73752672  .00063818  00000+0  10131-2 0  9996
2 47612  97.3314 265.4924 0005903 112.2783 247.9096 15.53128380193716
FLOCK 4S-48             
1 47617U 21006EJ  24200.14542130  .00056617  00000+0  97035-3 0  9993
2 47617  97.3333 265.7367 0005886  90.5114 269.6813 15.51011716194746
FLOCK 4S-46             
1 47684U 21006EK  24199.89653032  .00047047  00000+0  74417-3 0  9996
2 47684  97.3406 266.0848 0005367 104.5599 255.6250 15.53305370193761
FLOCK 4S-47             
1 47685U 21006EL  24199.71414428  .00059792  00000+0  96682-3 0  9990
2 47685  97.3268 264.5783 0005180 113.2016 246.9782 15.52636679194664
FLOCK 4S-44             
1 47686U 21006EM  24199.75767843  .00063982  00000+0  10126-2 0  9991
2 47686  97.3265 265.7030 0006591 104.8317 255.3667 15.53207922193725
FLOCK 4S-41             
1 47698U 21006ER  24199.70086492  .00053339  00000+0  87719-3 0  9991
2 47698  97.3382 266.0840 0006322 100.9025 259.2939 15.52184607193690
FLOCK 4X-8              
1 50992U 22002J   24199.76688713  .00052705  00000+0  93689-3 0  9998
2 50992  97.3930 276.7773 0004632 238.0101 122.0701 15.50001678139758
FLOCK 4X-44             
1 50994U 22002L   24200.47697759  .00069885  00000+0  11195-2 0  9999
2 50994  97.3863 277.9085 0004677 235.2717 124.8096 15.52858581139881
FLOCK 4X-2              
1 50996U 22002N   24199.78150923  .00054235  00000+0  95784-3 0  9999
2 50996  97.3895 276.8002 0004640 240.4895 119.5894 15.50179423139752
FLOCK 4X-20             
1 50997U 22002P   24199.59927140  .00061354  00000+0  10475-2 0  9995
2 50997  97.3919 276.9080 0004943 238.5555 121.5214 15.51105557139740
FLOCK 4X-30             
1 51000U 22002S   24199.89664355  .00050181  00000+0  88868-3 0  9998
2 51000  97.3843 276.2734 0005095 225.0943 134.9895 15.50117619139779
FLOCK 4X-22             
1 51003U 22002V   24199.59551844  .00052609  00000+0  90320-3 0  9999
2 51003  97.3920 276.9004 0004337 251.5770 108.5010 15.50990184139755
FLOCK 4X-5              
1 51004U 22002W   24199.94562175  .00062944  00000+0  97515-3 0  9994
2 51004  97.3844 276.7863 0003992 211.7486 148.3528 15.53818878139804
FLOCK 4X-41             
1 51005U 22002X   24200.16900452  .00058395  00000+0  10060-2 0  9990
2 51005  97.3850 276.6493 0005490 228.9951 131.0826 15.50861173139827
FLOCK 4X-3              
1 51006U 22002Y   24199.93475886  .00054906  00000+0  95362-3 0  9994
2 51006  97.3911 277.2266 0004781 227.7998 132.2849 15.50649773139795
FLOCK 4X-29             
1 51011U 22002AD  24199.73594075  .00065656  00000+0  10612-2 0  9998
2 51011  97.3913 276.9949 0003703 228.0293 132.0644 15.52630882139785
FLOCK 4X-12             
1 51015U 22002AH  24200.18666518  .00052210  00000+0  92174-3 0  9992
2 51015  97.3885 277.0903 0005698 237.7905 122.2794 15.50193220139810
FLOCK 4X-1              
1 51017U 22002AK  24199.93801630  .00052834  00000+0  92875-3 0  9990
2 51017  97.3853 276.5491 0004974 236.1392 123.9386 15.50316837139784
FLOCK 4X-16             
1 51020U 22002AN  24200.15027808  .00059050  00000+0  10087-2 0  9999
2 51020  97.3874 276.8240 0005839 231.6909 128.3819 15.51095414139822
FLOCK 4X-32             
1 51024U 22002AS  24199.69013678  .00066449  00000+0  11608-2 0  9999
2 51024  97.3933 276.7554 0005243 238.9309 121.1429 15.50433641139737
FLOCK 4X-26             
1 51026U 22002AU  24199.75666766  .00061537  00000+0  10726-2 0  9993
2 51026  97.3892 276.5774 0005540 241.6296 118.4397 15.50516014139763
FLOCK 4X-43             
1 51027U 22002AV  24199.58970487  .00053777  00000+0  94172-3 0  9998
2 51027  97.3855 276.2211 0004971 233.6811 126.3982 15.50421168139737
FLOCK 4X-13             
1 51028U 22002AW  24199.73077659  .00154822  00000+0  24140-2 0  9995
2 51028  97.3852 276.5252 0007578 238.4901 121.5612 15.53275535139760
FLOCK 4X-39             
1 51029U 22002AX  24199.94267426  .00069912  00000+0  11531-2 0  9997
2 51029  97.3846 276.8037 0006401 230.6578 129.4108 15.52032539139802
FLOCK 4X-17             
1 51035U 22002BD  24199.94359081  .00052951  00000+0  94090-3 0  9990
2 51035  97.3919 276.8857 0003445 241.7682 118.3221 15.50016424139776
